[{"OBJECT_NAME":"LYNK TOWER 4","OBJECT_ID":"2023-001AB","EPOCH":"2026-03-09T16:15:30.644928","MEAN_MOTION":15.31819885,"ECCENTRICITY":0.00103213,"INCLINATION":97.3324,"RA_OF_ASC_NODE":128.594,"ARG_OF_PERICENTER":112.3386,"MEAN_ANOMALY":247.895,"EPHEMERIS_TYPE":0,"CLASSIFICATION_TYPE":"U","NORAD_CAT_ID":55034,"ELEMENT_SET_NO":999,"REV_AT_EPOCH":17658,"BSTAR":0.00030013829,"MEAN_MOTION_DOT":9.16e-5,"MEAN_MOTION_DDOT":0},{"OBJECT_NAME":"STARLINK-31170","OBJECT_ID":"2024-012Q","EPOCH":"2026-03-09T08:26:36.419424","MEAN_MOTION":15.27596261,"ECCENTRICITY":0.00018355,"INCLINATION":43.0034,"RA_OF_ASC_NODE":167.2088,"ARG_OF_PERICENTER":273.3842,"MEAN_ANOMALY":86.68,"EPHEMERIS_TYPE":0,"CLASSIFICATION_TYPE":"U","NORAD_CAT_ID":58801,"ELEMENT_SET_NO":999,"REV_AT_EPOCH":12118,"BSTAR":-0.0001120246,"MEAN_MOTION_DOT":-3.345e-5,"MEAN_MOTION_DDOT":0}]
